#aV2021  6 26  0  0  0.00000000     288 DD+AD WGS84 FIT  NGA
## 2163 518400.00000000   300.00000000 59391 0.0000000000000
+   31     1  2  3  4  5  6  7  8  9 10 12 13 14 15 16 17 18
+         19 20 21 22 23 24 25 26 27 28 29 30 31 32  0  0  0
+          0  0  0  0  0  0  0  0  0  0  0  0  0  0  0  0  0
+          0  0  0  0  0  0  0  0  0  0  0  0  0  0  0  0  0
+          0  0  0  0  0  0  0  0  0  0  0  0  0  0  0  0  0
++         2  2  2  2  2  2  2  2  2  2  2  2  2  2  2  2  2
++         2  2  2  2  2  2  2  2  2  2  2  2  2  2  0  0  0
++         0  0  0  0  0  0  0  0  0  0  0  0  0  0  0  0  0
++         0  0  0  0  0  0  0  0  0  0  0  0  0  0  0  0  0
++         0  0  0  0  0  0  0  0  0  0  0  0  0  0  0  0  0
%c cc cc ccc ccc cccc cccc cccc cccc ccccc ccccc ccccc ccccc
%c cc cc ccc ccc cccc cccc cccc cccc ccccc ccccc ccccc ccccc
%f  0.0000000  0.000000000  0.00000000000  0.000000000000000
%f  0.0000000  0.000000000  0.00000000000  0.000000000000000
%i    0    0    0    0      0      0      0      0         0
%i    0    0    0    0      0      0      0      0         0
/*      NGA, ST. LOUIS,MO.                                  
/*   EPHEMERIS COMPUTED FROM 2 DAYS OF DATA                 
/*   EPOCHA v6 SMOOTHER                                     
/*   G2139 IERS2010 SATIGS SATAPC                           
*  2021  6 26  8 30  0.00000000
P  1 -11855.391716 -13394.444981 -20016.400842    646.808833                    
V  1  24663.609466   -456.335209 -14163.441088     -0.116493                    
P  2 -13691.756167  14015.765214  18612.071195   -615.209754                    
V  2 -22318.227410    403.450596 -17280.592102     -0.028069                    
P  3 -12173.614418 -23606.181766  -1894.697842   -202.753368                    
V  3   3238.286577    768.524889 -31766.855454     -0.109117                    
P  4  -4179.041881 -18251.013882  18824.075363   -200.925870                    
V  4  13843.087688 -19545.857243 -15943.299938     -0.009975                    
P  5   2817.016379  22451.577495  13606.973096    -46.079584                    
V  5 -11468.991658 -13598.811935  24704.212934     -0.011290                    
P  6 -23266.926994   7142.259696  10762.266023     31.761836                    
V  6 -13527.846453  -1763.263424 -28163.572218      0.049814                    
P  7 -23744.624970  -7489.090932  10289.712973    187.762259                    
V  7  12412.160615  -2204.349007  27533.037138      0.094419                    
P  8   3698.680111 -23408.881348 -11683.714921    -26.532574                    
V  8   9337.837821 -11889.386973  27101.653277     -0.014151                    
P  9 -13160.553367  -7925.667535  21607.678134   -352.907867                    
V  9  13407.621341 -24129.585318   -705.691713     -0.017295                    
P 10  17166.629117   2066.639081 -20120.775279   -149.910837                    
V 10  12187.249468  22648.316344  12385.762943     -0.075856                    
P 12   9683.971594  24648.396772  -3100.231325    -60.213885                    
V 12  -3607.881407  -2252.260666 -31628.469501     -0.052384                    
P 13 -12317.673405  22735.191731  -5869.527644    149.765370                    
V 13  -6507.697952   4218.040482  30825.849372      0.049259                    
P 14 -17175.315918  -2206.349227 -20157.517826     61.302941                    
V 14 -10897.096195 -23168.099830  11786.767241     -0.081653                    
P 15   -386.425973  23696.027641 -11997.029782   -139.763263                    
V 15  -8914.200125  12368.420031  25851.301021      0.026413                    
P 16   3926.771386 -19381.048469  17258.082439   -347.339422                    
V 16  11146.302642  19678.693868  19733.503081     -0.060798                    
P 17 -18498.035399   7146.349670 -17244.602703    464.387886                    
V 17  11267.449417 -19748.955688 -19780.642815      0.058761                    
P 18  25029.201327   5430.932634   7165.746705    344.764096                    
V 18  -9137.071767   2198.630640  30118.254497     -0.021249                    
P 19 -19552.550624  14129.078226 -11245.403217     18.353906                    
V 19   6583.438096 -12351.428317 -27795.948498      0.049870                    
P 20   -155.892222  20195.803141  17343.861094    520.791567                    
V 20 -15223.112665 -16073.427010  18266.509435     -0.003738                    
P 21  -3751.328973 -14654.732004 -21161.165029    127.471660                    
V 21  28436.974563  -2264.821576  -2874.555340      0.024382                    
P 22  -7578.880978 -23346.805058 -10213.171220   -578.889661                    
V 22  10220.352605   8921.188524 -27279.061022      0.096142                    
P 23  18923.940481  12942.807708 -13478.849981     92.413836                    
V 23   7169.218198  15607.569396  25037.219394     -0.045852                    
P 24   6994.325766  15068.334470 -21034.312880    149.432104                    
V 24 -26064.370786   2464.459391  -6586.294564      0.165836                    
P 25  17065.352901  19064.792969   7357.276473    162.707882                    
V 25   2700.737609   9569.165968 -29724.974509      0.068215                    
P 26  11162.842034 -11220.501817  21245.317511    103.135279                    
V 26  15180.680936  22594.883127   4215.825714      0.047382                    
P 27  11880.319875 -23457.109442  -2032.598124   -153.282819                    
V 27   3481.182181   -752.555941  32184.357547     -0.060918                    
P 28 -14263.119435   4020.008147 -21485.941331    548.249544                    
V 28 -11657.594584 -26094.008327   2968.600100     -0.064485                    
P 29  11236.339902   9558.064331  22033.074251   -370.374892                    
V 29 -15834.393804  23137.023070  -2010.385608     -0.062591                    
P 30 -26572.839791   1020.618639  -2220.781941   -443.587564                    
V 30  -2810.443627  -3430.650650  30886.636192     -0.045761                    
P 31  22218.793655  -8224.306416  12375.697753   -125.214329                    
V 31  15635.428472   2511.964131 -25758.585633     -0.021361                    
P 32  18558.857547 -10178.900684 -15822.079770     16.981327                    
V 32  -8158.281241  18800.615324 -21676.504560     -0.016166                    
EOF
